[{"OBJECT_NAME":"ONEWEB-0121","OBJECT_ID":"2020-100K","EPOCH":"2025-12-31T02:44:11.155200","MEAN_MOTION":13.12443827,"ECCENTRICITY":0.00018148,"INCLINATION":87.8926,"RA_OF_ASC_NODE":24.0324,"ARG_OF_PERICENTER":86.2779,"MEAN_ANOMALY":273.8557,"EPHEMERIS_TYPE":0,"CLASSIFICATION_TYPE":"U","NORAD_CAT_ID":47267,"ELEMENT_SET_NO":999,"REV_AT_EPOCH":24259,"BSTAR":0.00086797326,"MEAN_MOTION_DOT":3.25e-6,"MEAN_MOTION_DDOT":0},{"OBJECT_NAME":"ONEWEB-0122","OBJECT_ID":"2020-100L","EPOCH":"2025-12-31T02:36:42.229440","MEAN_MOTION":13.12446674,"ECCENTRICITY":0.00015985,"INCLINATION":87.8927,"RA_OF_ASC_NODE":24.036,"ARG_OF_PERICENTER":89.3017,"MEAN_ANOMALY":270.8295,"EPHEMERIS_TYPE":0,"CLASSIFICATION_TYPE":"U","NORAD_CAT_ID":47268,"ELEMENT_SET_NO":999,"REV_AT_EPOCH":24250,"BSTAR":0.00042248661,"MEAN_MOTION_DOT":1.65e-6,"MEAN_MOTION_DDOT":0},{"OBJECT_NAME":"ONEWEB-0123","OBJECT_ID":"2020-100M","EPOCH":"2025-12-31T02:29:33.535968","MEAN_MOTION":13.12444401,"ECCENTRICITY":0.00017911,"INCLINATION":87.8919,"RA_OF_ASC_NODE":24.0618,"ARG_OF_PERICENTER":96.4655,"MEAN_ANOMALY":263.6678,"EPHEMERIS_TYPE":0,"CLASSIFICATION_TYPE":"U","NORAD_CAT_ID":47269,"ELEMENT_SET_NO":999,"REV_AT_EPOCH":24264,"BSTAR":1.2616105e-5,"MEAN_MOTION_DOT":1.7e-7,"MEAN_MOTION_DDOT":0},{"OBJECT_NAME":"ONEWEB-0124","OBJECT_ID":"2020-100N","EPOCH":"2025-12-31T07:44:16.298304","MEAN_MOTION":13.12443629,"ECCENTRICITY":0.0001906,"INCLINATION":87.8918,"RA_OF_ASC_NODE":24.0232,"ARG_OF_PERICENTER":91.369,"MEAN_ANOMALY":268.7657,"EPHEMERIS_TYPE":0,"CLASSIFICATION_TYPE":"U","NORAD_CAT_ID":47270,"ELEMENT_SET_NO":999,"REV_AT_EPOCH":24255,"BSTAR":-0.00097528901,"MEAN_MOTION_DOT":-3.38e-6,"MEAN_MOTION_DDOT":0},{"OBJECT_NAME":"ONEWEB-0125","OBJECT_ID":"2020-100P","EPOCH":"2025-12-31T07:12:34.305984","MEAN_MOTION":13.12443026,"ECCENTRICITY":0.0001997,"INCLINATION":87.8926,"RA_OF_ASC_NODE":23.9922,"ARG_OF_PERICENTER":95.9607,"MEAN_ANOMALY":264.1749,"EPHEMERIS_TYPE":0,"CLASSIFICATION_TYPE":"U","NORAD_CAT_ID":47271,"ELEMENT_SET_NO":999,"REV_AT_EPOCH":24261,"BSTAR":-0.00020821412,"MEAN_MOTION_DOT":-6.2e-7,"MEAN_MOTION_DDOT":0},{"OBJECT_NAME":"ONEWEB-0126","OBJECT_ID":"2020-100Q","EPOCH":"2025-12-31T07:42:01.234368","MEAN_MOTION":13.12441279,"ECCENTRICITY":0.0001663,"INCLINATION":87.8927,"RA_OF_ASC_NODE":24.0117,"ARG_OF_PERICENTER":95.2198,"MEAN_ANOMALY":264.912,"EPHEMERIS_TYPE":0,"CLASSIFICATION_TYPE":"U","NORAD_CAT_ID":47272,"ELEMENT_SET_NO":999,"REV_AT_EPOCH":24268,"BSTAR":-0.0010766398,"MEAN_MOTION_DOT":-3.75e-6,"MEAN_MOTION_DDOT":0},{"OBJECT_NAME":"ONEWEB-0127","OBJECT_ID":"2020-100R","EPOCH":"2025-12-31T03:13:27.964416","MEAN_MOTION":13.12440579,"ECCENTRICITY":0.00015932,"INCLINATION":87.8921,"RA_OF_ASC_NODE":24.0575,"ARG_OF_PERICENTER":93.5705,"MEAN_ANOMALY":266.5606,"EPHEMERIS_TYPE":0,"CLASSIFICATION_TYPE":"U","NORAD_CAT_ID":47273,"ELEMENT_SET_NO":999,"REV_AT_EPOCH":24268,"BSTAR":0.0011565483,"MEAN_MOTION_DOT":4.29e-6,"MEAN_MOTION_DDOT":0},{"OBJECT_NAME":"ONEWEB-0128","OBJECT_ID":"2020-100S","EPOCH":"2025-12-31T07:24:43.542720","MEAN_MOTION":13.12440159,"ECCENTRICITY":0.00017114,"INCLINATION":87.8914,"RA_OF_ASC_NODE":24.0384,"ARG_OF_PERICENTER":82.7333,"MEAN_ANOMALY":277.399,"EPHEMERIS_TYPE":0,"CLASSIFICATION_TYPE":"U","NORAD_CAT_ID":47274,"ELEMENT_SET_NO":999,"REV_AT_EPOCH":24272,"BSTAR":-0.00099227219,"MEAN_MOTION_DOT":-3.44e-6,"MEAN_MOTION_DDOT":0},{"OBJECT_NAME":"ONEWEB-0129","OBJECT_ID":"2020-100T","EPOCH":"2025-12-31T03:15:54.873792","MEAN_MOTION":13.12440946,"ECCENTRICITY":7.582e-5,"INCLINATION":87.893,"RA_OF_ASC_NODE":24.0291,"ARG_OF_PERICENTER":125.5477,"MEAN_ANOMALY":234.5723,"EPHEMERIS_TYPE":0,"CLASSIFICATION_TYPE":"U","NORAD_CAT_ID":47275,"ELEMENT_SET_NO":999,"REV_AT_EPOCH":24263,"BSTAR":0.0010436692,"MEAN_MOTION_DOT":3.88e-6,"MEAN_MOTION_DDOT":0},{"OBJECT_NAME":"ONEWEB-0130","OBJECT_ID":"2020-100U","EPOCH":"2025-12-31T02:05:10.317408","MEAN_MOTION":13.12443017,"ECCENTRICITY":0.0001661,"INCLINATION":87.8926,"RA_OF_ASC_NODE":24.0336,"ARG_OF_PERICENTER":90.7947,"MEAN_ANOMALY":269.3372,"EPHEMERIS_TYPE":0,"CLASSIFICATION_TYPE":"U","NORAD_CAT_ID":47276,"ELEMENT_SET_NO":999,"REV_AT_EPOCH":24259,"BSTAR":-0.0010250194,"MEAN_MOTION_DOT":-3.56e-6,"MEAN_MOTION_DDOT":0},{"OBJECT_NAME":"ONEWEB-0131","OBJECT_ID":"2020-100V","EPOCH":"2025-12-31T07:29:37.080672","MEAN_MOTION":13.12442128,"ECCENTRICITY":0.00017551,"INCLINATION":87.8927,"RA_OF_ASC_NODE":24.019,"ARG_OF_PERICENTER":91.4562,"MEAN_ANOMALY":268.6767,"EPHEMERIS_TYPE":0,"CLASSIFICATION_TYPE":"U","NORAD_CAT_ID":47277,"ELEMENT_SET_NO":999,"REV_AT_EPOCH":24266,"BSTAR":-0.00075392624,"MEAN_MOTION_DOT":-2.58e-6,"MEAN_MOTION_DDOT":0},{"OBJECT_NAME":"ONEWEB-0132","OBJECT_ID":"2020-100W","EPOCH":"2025-12-31T02:41:45.678336","MEAN_MOTION":13.12442501,"ECCENTRICITY":0.00017299,"INCLINATION":87.8922,"RA_OF_ASC_NODE":24.0604,"ARG_OF_PERICENTER":89.4483,"MEAN_ANOMALY":270.6843,"EPHEMERIS_TYPE":0,"CLASSIFICATION_TYPE":"U","NORAD_CAT_ID":47278,"ELEMENT_SET_NO":999,"REV_AT_EPOCH":24253,"BSTAR":0.00058828304,"MEAN_MOTION_DOT":2.24e-6,"MEAN_MOTION_DDOT":0},{"OBJECT_NAME":"ONEWEB-0133","OBJECT_ID":"2020-100X","EPOCH":"2025-12-31T03:05:57.249312","MEAN_MOTION":13.12442561,"ECCENTRICITY":0.00017646,"INCLINATION":87.8924,"RA_OF_ASC_NODE":24.0183,"ARG_OF_PERICENTER":87.025,"MEAN_ANOMALY":273.108,"EPHEMERIS_TYPE":0,"CLASSIFICATION_TYPE":"U","NORAD_CAT_ID":47279,"ELEMENT_SET_NO":999,"REV_AT_EPOCH":24269,"BSTAR":0.00137749,"MEAN_MOTION_DOT":5.08e-6,"MEAN_MOTION_DDOT":0},{"OBJECT_NAME":"ONEWEB-0134","OBJECT_ID":"2020-100Y","EPOCH":"2025-12-31T07:51:35.833248","MEAN_MOTION":13.12446442,"ECCENTRICITY":0.00016891,"INCLINATION":87.8925,"RA_OF_ASC_NODE":23.9756,"ARG_OF_PERICENTER":80.006,"MEAN_ANOMALY":280.1259,"EPHEMERIS_TYPE":0,"CLASSIFICATION_TYPE":"U","NORAD_CAT_ID":47280,"ELEMENT_SET_NO":999,"REV_AT_EPOCH":24269,"BSTAR":0.00037602014,"MEAN_MOTION_DOT":1.48e-6,"MEAN_MOTION_DDOT":0},{"OBJECT_NAME":"ONEWEB-0135","OBJECT_ID":"2020-100Z","EPOCH":"2025-12-31T07:10:07.388832","MEAN_MOTION":13.1244121,"ECCENTRICITY":0.00015931,"INCLINATION":87.8923,"RA_OF_ASC_NODE":24.0197,"ARG_OF_PERICENTER":81.7579,"MEAN_ANOMALY":278.373,"EPHEMERIS_TYPE":0,"CLASSIFICATION_TYPE":"U","NORAD_CAT_ID":47281,"ELEMENT_SET_NO":999,"REV_AT_EPOCH":24271,"BSTAR":8.0899944e-5,"MEAN_MOTION_DOT":4.2e-7,"MEAN_MOTION_DDOT":0},{"OBJECT_NAME":"ONEWEB-0136","OBJECT_ID":"2020-100AA","EPOCH":"2025-12-31T07:36:56.803104","MEAN_MOTION":13.12441658,"ECCENTRICITY":0.00013978,"INCLINATION":87.8925,"RA_OF_ASC_NODE":23.9859,"ARG_OF_PERICENTER":83.4535,"MEAN_ANOMALY":276.6753,"EPHEMERIS_TYPE":0,"CLASSIFICATION_TYPE":"U","NORAD_CAT_ID":47282,"ELEMENT_SET_NO":999,"REV_AT_EPOCH":24264,"BSTAR":-0.0013262379,"MEAN_MOTION_DOT":-4.64e-6,"MEAN_MOTION_DDOT":0},{"OBJECT_NAME":"ONEWEB-0137","OBJECT_ID":"2020-100AB","EPOCH":"2025-12-31T02:56:23.537760","MEAN_MOTION":13.12443305,"ECCENTRICITY":0.00017708,"INCLINATION":87.8926,"RA_OF_ASC_NODE":24.0299,"ARG_OF_PERICENTER":94.9795,"MEAN_ANOMALY":265.1536,"EPHEMERIS_TYPE":0,"CLASSIFICATION_TYPE":"U","NORAD_CAT_ID":47283,"ELEMENT_SET_NO":999,"REV_AT_EPOCH":24252,"BSTAR":0.0013077445,"MEAN_MOTION_DOT":4.83e-6,"MEAN_MOTION_DDOT":0}]
