ONEWEB-0121             
1 47267U 20100K   25365.11401800  .00000325  00000+0  86797-3 0  9994
2 47267  87.8926  24.0324 0001814  86.2779 273.8557 13.12443827242590
ONEWEB-0122             
1 47268U 20100L   25365.10882210  .00000165  00000+0  42249-3 0  9998
2 47268  87.8927  24.0360 0001598  89.3017 270.8295 13.12446674242500
ONEWEB-0123             
1 47269U 20100M   25365.10386037  .00000017  00000+0  12616-4 0  9997
2 47269  87.8919  24.0618 0001791  96.4655 263.6678 13.12444401242646
ONEWEB-0124             
1 47270U 20100N   25365.32241086 -.00000338  00000+0 -97529-3 0  9990
2 47270  87.8918  24.0232 0001906  91.3690 268.7657 13.12443629242554
ONEWEB-0125             
1 47271U 20100P   25365.30039706 -.00000062  00000+0 -20821-3 0  9998
2 47271  87.8926  23.9922 0001997  95.9607 264.1749 13.12443026242616
ONEWEB-0126             
1 47272U 20100Q   25365.32084762 -.00000375  00000+0 -10766-2 0  9996
2 47272  87.8927  24.0117 0001663  95.2198 264.9120 13.12441279242680
ONEWEB-0127             
1 47273U 20100R   25365.13435144  .00000429  00000+0  11565-2 0  9996
2 47273  87.8921  24.0575 0001593  93.5705 266.5606 13.12440579242689
ONEWEB-0128             
1 47274U 20100S   25365.30883730 -.00000344  00000+0 -99227-3 0  9994
2 47274  87.8914  24.0384 0001711  82.7333 277.3990 13.12440159242724
ONEWEB-0129             
1 47275U 20100T   25365.13605178  .00000388  00000+0  10437-2 0  9995
2 47275  87.8930  24.0291 0000758 125.5477 234.5723 13.12440946242638
ONEWEB-0130             
1 47276U 20100U   25365.08692497 -.00000356  00000+0 -10250-2 0  9990
2 47276  87.8926  24.0336 0001661  90.7947 269.3372 13.12443017242596
ONEWEB-0131             
1 47277U 20100V   25365.31223473 -.00000258  00000+0 -75393-3 0  9992
2 47277  87.8927  24.0190 0001755  91.4562 268.6767 13.12442128242661
ONEWEB-0132             
1 47278U 20100W   25365.11233424  .00000224  00000+0  58828-3 0  9993
2 47278  87.8922  24.0604 0001729  89.4483 270.6843 13.12442501242536
ONEWEB-0133             
1 47279U 20100X   25365.12913483  .00000508  00000+0  13775-2 0  9991
2 47279  87.8924  24.0183 0001764  87.0250 273.1080 13.12442561242690
ONEWEB-0134             
1 47280U 20100Y   25365.32749807  .00000148  00000+0  37602-3 0  9998
2 47280  87.8925  23.9756 0001689  80.0060 280.1259 13.12446442242693
ONEWEB-0135             
1 47281U 20100Z   25365.29869663  .00000042  00000+0  80900-4 0  9991
2 47281  87.8923  24.0197 0001593  81.7579 278.3730 13.12441210242714
ONEWEB-0136             
1 47282U 20100AA  25365.31732411 -.00000464  00000+0 -13262-2 0  9990
2 47282  87.8925  23.9859 0001397  83.4535 276.6753 13.12441658242647
ONEWEB-0137             
1 47283U 20100AB  25365.12249465  .00000483  00000+0  13077-2 0  9995
2 47283  87.8926  24.0299 0001770  94.9795 265.1536 13.12443305242529
